KUZGTU 1 (RS47S)        
1 57217U 23091AV  26166.13726876  .00011756  00000+0  40859-3 0  9996
2 57217  97.5069 230.5962 0012345 104.3201 255.9411 15.29823419164061
SONATE-2                
1 59112U 24043Q   26166.14810382  .00034764  00000+0  45384-3 0  9999
2 59112  97.5526 316.4190 0006989 202.2408 157.8545 15.58581911127579
MESAT1                  
1 60209U 24125G   26166.12170155  .00054646  00000+0  59972-3 0  9993
2 60209  97.2285  23.5579 0009307 211.2256 148.8451 15.63008621109240
OOV-CUBE (TUBSAT-30)    
1 60240U 24128F   26166.25891672  .00001750  00000+0  14324-3 0  9999
2 60240  61.9945 232.2972 0044856 133.2746 227.2101 15.02767420105823
COLIBRI-S (RS67S)       
1 61746U 24199M   26166.25148335  .00018912  00000+0  36736-3 0  9999
2 61746  97.2997  40.0887 0006270 288.5642  71.4927 15.47656740137114
HORS 3 (RS81S)          
1 61753U 24199U   26166.22320084  .00029210  00000+0  43844-3 0  9998
2 61753  97.2981  42.0254 0003712 290.3036  69.7820 15.54856441137256
HORS 4 (RS82S)          
1 61754U 24199V   26166.25385196  .00041601  00000+0  52381-3 0  9991
2 61754  97.2927  43.2457 0003009 271.2745  88.8167 15.59528127137347
SIT-2086                
1 61764U 24199AF  26166.26349398  .00031141  00000+0  50011-3 0  9993
2 61764  97.2937  42.5498 0004411 260.8304  99.2450 15.52971938134139
HYPERVIEW 1G (RS66S)    
1 61772U 24199AP  26166.22080396  .00118860  00000+0  77983-3 0  9999
2 61772  97.2879  45.8418 0003346 229.5268 130.5706 15.75388314134361
ALTAIR (RS65S)          
1 61779U 24199AW  26166.28909881  .00007662  00000+0  21355-3 0  9990
2 61779  97.3031  35.6529 0011298 318.9744  41.0649 15.36997132136822
ASRTU-1 (AO-123)        
1 61781U 24199AY  26166.27533796  .00006235  00000+0  18177-3 0  9993
2 61781  97.3002  34.9638 0012467 321.8610  38.1751 15.35651871133633
SAMSAT-IONOSPHERE (RS7*)
1 61784U 24199BB  26166.26053334  .00039222  00000+0  53324-3 0  9995
2 61784  97.2949  42.1032 0005832 286.6637  73.3978 15.57477812137269
RTU MIREA 1 (RS51S)     
1 61785U 24199BC  26166.28919588  .00044498  00000+0  53110-3 0  9994
2 61785  97.2936  42.9545 0005519 277.8577  82.2053 15.60910208134175
TEVEL2-4                
1 63213U 25052D   26166.16079356  .00014823  00000+0  44473-3 0  9999
2 63213  97.3913  62.5494 0004846 107.3580 252.8193 15.34549992 69809
TEVEL2-5                
1 63214U 25052E   26165.98542140  .00017230  00000+0  51930-3 0  9996
2 63214  97.3911  62.3224 0004737 109.0151 251.1605 15.34373171 69779
TEVEL2-6                
1 63215U 25052F   26166.25856879  .00014751  00000+0  44547-3 0  9996
2 63215  97.3915  62.5804 0004650 108.6304 251.5445 15.34344374 69813
TEVEL2-1                
1 63217U 25052H   26166.22168631  .00014089  00000+0  43283-3 0  9997
2 63217  97.3885  62.1701 0004698 117.4023 242.7699 15.33812138 69798
TEVEL2-3                
1 63218U 25052J   26166.21640006  .00014569  00000+0  44668-3 0  9999
2 63218  97.3890  62.1864 0004652 117.3895 242.7821 15.33867104 69791
TEVEL2-2                
1 63219U 25052K   26166.22201124  .00014328  00000+0  43999-3 0  9994
2 63219  97.3886  62.1729 0004670 117.7961 242.3756 15.33820586 69791
TEVEL2-9                
1 63237U 25052AD  26166.26221952  .00013263  00000+0  43321-3 0  9995
2 63237  97.3947  61.5923 0007637 136.2267 223.9582 15.31847587 69733
TEVEL2-7                
1 63238U 25052AE  26166.23742285  .00012882  00000+0  42471-3 0  9991
2 63238  97.3951  61.4847 0007732 136.5558 223.6294 15.31552974 69724
TEVEL2-8                
1 63239U 25052AF  26166.24565472  .00013007  00000+0  42900-3 0  9991
2 63239  97.3952  61.4697 0007747 137.3635 222.8209 15.31537098 69727
INNOSAT 16 (RS92S7)     
1 64878U 25155C   26166.23093098  .00004602  00000+0  18470-3 0  9990
2 64878  97.4561 133.3649 0010315 182.2325 177.8868 15.25438499 80372
GEOSCAN 6 (RS92S6)      
1 64879U 25155D   26166.28509117  .00008023  00000+0  27763-3 0  9996
2 64879  97.4554 134.8296 0008110 168.5419 191.6008 15.30120089 80470
GEOSCAN 1 (RS92S1)      
1 64880U 25155E   26166.28827772  .00008689  00000+0  29502-3 0  9999
2 64880  97.4551 134.9791 0008049 168.2998 191.8431 15.30713212 80489
239ALFEROV (RS61S)      
1 64881U 25155F   26166.26062902  .00012162  00000+0  38477-3 0  9996
2 64881  97.4550 135.5063 0007784 165.1240 195.0233 15.32894211 80510
GEOSCAN 2 (RS92S2)      
1 64890U 25155Q   26166.28229873  .00008788  00000+0  29588-3 0  9992
2 64890  97.4549 135.1249 0007891 155.1329 205.0293 15.30983887 80497
GEOSCAN 5 (RS92S5)      
1 64891U 25155R   26166.25005250  .00011604  00000+0  36373-3 0  9992
2 64891  97.4542 135.6325 0006484 168.5924 191.5466 15.33212117 80526
GEOSCAN 4 (RS92S4)      
1 64892U 25155S   26166.23443900  .00011476  00000+0  35802-3 0  9992
2 64892  97.4546 135.6645 0006533 168.3620 191.7775 15.33364847 80525
GEOSCAN 3 (RS92S3)      
1 64893U 25155T   26166.23770864  .00014055  00000+0  41135-3 0  9997
2 64893  97.4534 136.0919 0006477 166.4386 193.7032 15.35338428 80556
