OBJECT_NAME,OBJECT_ID,EPOCH,MEAN_MOTION,ECCENTRICITY,INCLINATION,RA_OF_ASC_NODE,ARG_OF_PERICENTER,MEAN_ANOMALY,EPHEMERIS_TYPE,CLASSIFICATION_TYPE,NORAD_CAT_ID,ELEMENT_SET_NO,REV_AT_EPOCH,BSTAR,MEAN_MOTION_DOT,MEAN_MOTION_DDOT
KUZGTU 1 (RS47S),2023-091AV,2026-06-15T03:17:40.020864,15.29823419,.00123455,97.5069,230.5962,104.3201,255.9411,0,U,57217,999,16406,.40859224E-3,.11756E-3,0
SONATE-2,2024-043Q,2026-06-15T03:33:16.170048,15.58581911,.00069896,97.5526,316.4190,202.2408,157.8545,0,U,59112,999,12757,.45383807E-3,.34764E-3,0
MESAT1,2024-125G,2026-06-15T02:55:15.013920,15.63008621,.00093071,97.2285,23.5579,211.2256,148.8451,0,U,60209,999,10924,.59971777E-3,.54646E-3,0
OOV-CUBE (TUBSAT-30),2024-128F,2026-06-15T06:12:50.404608,15.02767420,.00448565,61.9945,232.2972,133.2746,227.2101,0,U,60240,999,10582,.14323973E-3,.175E-4,0
COLIBRI-S (RS67S),2024-199M,2026-06-15T06:02:08.161440,15.47656740,.00062709,97.2997,40.0887,288.5642,71.4927,0,U,61746,999,13711,.36735831E-3,.18912E-3,0
HORS 3 (RS81S),2024-199U,2026-06-15T05:21:24.552576,15.54856441,.0003712,97.2981,42.0254,290.3036,69.7820,0,U,61753,999,13725,.43844091E-3,.2921E-3,0
HORS 4 (RS82S),2024-199V,2026-06-15T06:05:32.809344,15.59528127,.0003009,97.2927,43.2457,271.2745,88.8167,0,U,61754,999,13734,.52381084E-3,.41601E-3,0
SIT-2086,2024-199AF,2026-06-15T06:19:25.879872,15.52971938,.00044117,97.2937,42.5498,260.8304,99.2450,0,U,61764,999,13413,.50011405E-3,.31141E-3,0
HYPERVIEW 1G (RS66S),2024-199AP,2026-06-15T05:17:57.462144,15.75388314,.00033469,97.2879,45.8418,229.5268,130.5706,0,U,61772,999,13436,.77982749E-3,.11886E-2,0
ALTAIR (RS65S),2024-199AW,2026-06-15T06:56:18.137184,15.36997132,.00112982,97.3031,35.6529,318.9744,41.0649,0,U,61779,999,13682,.21355353E-3,.7662E-4,0
ASRTU-1 (AO-123),2024-199AY,2026-06-15T06:36:29.199744,15.35651871,.00124679,97.3002,34.9638,321.8610,38.1751,0,U,61781,999,13363,.18177059E-3,.6235E-4,0
SAMSAT-IONOSPHERE (RS75S),2024-199BB,2026-06-15T06:15:10.080576,15.57477812,.00058327,97.2949,42.1032,286.6637,73.3978,0,U,61784,999,13726,.53324488E-3,.39222E-3,0
RTU MIREA 1 (RS51S),2024-199BC,2026-06-15T06:56:26.524032,15.60910208,.00055195,97.2936,42.9545,277.8577,82.2053,0,U,61785,999,13417,.53109916E-3,.44498E-3,0
TEVEL2-4,2025-052D,2026-06-15T03:51:32.563584,15.34549992,.00048464,97.3913,62.5494,107.3580,252.8193,0,U,63213,999,6980,.44472787E-3,.14823E-3,0
TEVEL2-5,2025-052E,2026-06-14T23:39:00.408960,15.34373171,.00047375,97.3911,62.3224,109.0151,251.1605,0,U,63214,999,6977,.51930003E-3,.1723E-3,0
TEVEL2-6,2025-052F,2026-06-15T06:12:20.343456,15.34344374,.00046506,97.3915,62.5804,108.6304,251.5445,0,U,63215,999,6981,.44547318E-3,.14751E-3,0
TEVEL2-1,2025-052H,2026-06-15T05:19:13.697184,15.33812138,.00046985,97.3885,62.1701,117.4023,242.7699,0,U,63217,999,6979,.43282954E-3,.14089E-3,0
TEVEL2-3,2025-052J,2026-06-15T05:11:36.965184,15.33867104,.00046528,97.3890,62.1864,117.3895,242.7821,0,U,63218,999,6979,.44668464E-3,.14569E-3,0
TEVEL2-2,2025-052K,2026-06-15T05:19:41.771136,15.33820586,.00046707,97.3886,62.1729,117.7961,242.3756,0,U,63219,999,6979,.43998669E-3,.14328E-3,0
TEVEL2-9,2025-052AD,2026-06-15T06:17:35.766528,15.31847587,.00076378,97.3947,61.5923,136.2267,223.9582,0,U,63237,999,6973,.43321473E-3,.13263E-3,0
TEVEL2-7,2025-052AE,2026-06-15T05:41:53.334240,15.31552974,.00077324,97.3951,61.4847,136.5558,223.6294,0,U,63238,999,6972,.42470935E-3,.12882E-3,0
TEVEL2-8,2025-052AF,2026-06-15T05:53:44.567808,15.31537098,.00077476,97.3952,61.4697,137.3635,222.8209,0,U,63239,999,6972,.42899949E-3,.13007E-3,0
INNOSAT 16 (RS92S7),2025-155C,2026-06-15T05:32:32.436672,15.25438499,.0010315,97.4561,133.3649,182.2325,177.8868,0,U,64878,999,8037,.18470317E-3,.4602E-4,0
GEOSCAN 6 (RS92S6),2025-155D,2026-06-15T06:50:31.877088,15.30120089,.00081106,97.4554,134.8296,168.5419,191.6008,0,U,64879,999,8047,.27763386E-3,.8023E-4,0
GEOSCAN 1 (RS92S1),2025-155E,2026-06-15T06:55:07.195008,15.30713212,.00080496,97.4551,134.9791,168.2998,191.8431,0,U,64880,999,8048,.29501955E-3,.8689E-4,0
239ALFEROV (RS61S),2025-155F,2026-06-15T06:15:18.347328,15.32894211,.00077841,97.4550,135.5063,165.1240,195.0233,0,U,64881,999,8051,.38477415E-3,.12162E-3,0
GEOSCAN 2 (RS92S2),2025-155Q,2026-06-15T06:46:30.610272,15.30983887,.0007891,97.4549,135.1249,155.1329,205.0293,0,U,64890,999,8049,.29587515E-3,.8788E-4,0
GEOSCAN 5 (RS92S5),2025-155R,2026-06-15T06:00:04.536000,15.33212117,.00064848,97.4542,135.6325,168.5924,191.5466,0,U,64891,999,8052,.36372634E-3,.11604E-3,0
GEOSCAN 4 (RS92S4),2025-155S,2026-06-15T05:37:35.529600,15.33364847,.00065335,97.4546,135.6645,168.3620,191.7775,0,U,64892,999,8052,.35802112E-3,.11476E-3,0
GEOSCAN 3 (RS92S3),2025-155T,2026-06-15T05:42:18.026496,15.35338428,.00064777,97.4534,136.0919,166.4386,193.7032,0,U,64893,999,8055,.41134794E-3,.14055E-3,0
